ESEO                    
1 43792U 18099AL  26068.65529582  .00002831  00000+0  20935-3 0  9991
2 43792  97.4113 110.2601 0011063 317.6000  42.4371 15.03914518396849
STARLINK-2432           
1 47840U 21018BF  26068.74319320  .00000310  00000+0  39720-4 0  9994
2 47840  53.0558 231.3746 0001222  86.2231 273.8898 15.06401384276884
